*******************************************************************************
Ephemeris / WWW_USER Mon Mar 10 07:36:10 2025 Pasadena, USA      / Horizons    
*******************************************************************************
Target body name: Lemmon (C/2018 EF9)             {source: JPL#18}
Center body name: Earth (399)                     {source: DE441}
Center-site name: Mauna Kea
*******************************************************************************
Start time      : A.D. 2018-Sep-03 04:45:00.0000 UT      
Stop  time      : A.D. 2018-Sep-03 15:57:00.0000 UT      
Step-size       : 1 minutes
*******************************************************************************
Target pole/equ : undefined
Target radii    : undefined                                                    
Center geodetic : 204.5278, 19.8260847, 4.21024   {E-lon(deg),Lat(deg),Alt(km)}
Center cylindric: 204.5278, 6006.35451, 2151.0229 {E-lon(deg),Dxy(km),Dz(km)}
Center pole/equ : ITRF93                          {East-longitude positive}
Center radii    : 6378.137, 6378.137, 6356.752 km {Equator_a, b, pole_c}       
Target primary  : Sun
Vis. interferer : MOON (R_eq= 1737.400) km        {source: DE441}
Rel. light bend : Sun                             {source: DE441}
Rel. lght bnd GM: 1.3271E+11 km^3/s^2                                          
Small-body perts: Yes                             {source: SB441-N16}
Atmos refraction: NO (AIRLESS)
RA format       : HMS
Time format     : CAL 
Calendar mode   : Mixed Julian/Gregorian
RTS-only print  : NO       
EOP file        : eop.250307.p250603                                           
EOP coverage    : DATA-BASED 1962-JAN-20 TO 2025-MAR-07. PREDICTS-> 2025-JUN-02
Units conversion: 1 au= 149597870.700 km, c= 299792.458 km/s, 1 day= 86400.0 s 
Table cut-offs 1: Elevation (-90.0deg=NO ),Airmass (>38.000=NO), Daylight (YES)
Table cut-offs 2: Solar elongation (  0.0,180.0=NO ),Local Hour Angle( 0.0=NO )
Table cut-offs 3: RA/DEC angular rate (     0.0=NO )                           
*******************************************************************************
Initial IAU76/J2000 heliocentric ecliptic osculating elements (au, days, deg.):
  EPOCH=  2458226.5 ! 2018-Apr-18.0000000 (TDB)    RMSW= n.a.                  
   EC= .9975741722198472   QR= 1.55663257903246    TP= 2458261.6283815675      
   OM= 172.5780664128357   W= 72.61657512148747    IN= 84.69445280104227       
  Equivalent ICRF heliocentric cartesian coordinates (au, au/d):
   X=-1.091857230976521E+00  Y=-4.544188696153424E-01  Z= 1.120998862172552E+00
  VX= 1.630642470498751E-02 VY=-6.481787118028984E-03 VZ= 7.403953065693920E-03
Comet physical (GM= km^3/s^2; RAD= km):                                        
   GM= n.a.                RAD= n.a.                                           
   M1=  8.6      M2=  17.8     k1=  45.25  k2=  5.      PHCOF=  .030           
*******************************************************************************
 Date__(UT)__HR:MN     R.A._________(ICRF)_________DEC
******************************************************
$$SOE
 2018-Sep-03 13:05  m  20 25 33.257449 +62 06 52.52320
 2018-Sep-03 13:06  m  20 25 33.255454 +62 06 50.56776
 2018-Sep-03 13:07  m  20 25 33.253473 +62 06 48.61228
 2018-Sep-03 13:08  m  20 25 33.251508 +62 06 46.65677
 2018-Sep-03 13:09  m  20 25 33.249559 +62 06 44.70122
 2018-Sep-03 13:10  m  20 25 33.247624 +62 06 42.74565
 2018-Sep-03 13:11  m  20 25 33.245706 +62 06 40.79004
 2018-Sep-03 13:12  m  20 25 33.243802 +62 06 38.83440
 2018-Sep-03 13:13  m  20 25 33.241914 +62 06 36.87872
 2018-Sep-03 13:14  m  20 25 33.240042 +62 06 34.92302
 2018-Sep-03 13:15  m  20 25 33.238185 +62 06 32.96729
 2018-Sep-03 13:16  m  20 25 33.236343 +62 06 31.01152
 2018-Sep-03 13:17  m  20 25 33.234517 +62 06 29.05573
 2018-Sep-03 13:18  m  20 25 33.232706 +62 06 27.09991
 2018-Sep-03 13:19  m  20 25 33.230911 +62 06 25.14405
 2018-Sep-03 13:20  m  20 25 33.229132 +62 06 23.18817
 2018-Sep-03 13:21  m  20 25 33.227367 +62 06 21.23227
 2018-Sep-03 13:22  m  20 25 33.225619 +62 06 19.27633
 2018-Sep-03 13:23  m  20 25 33.223886 +62 06 17.32036
 2018-Sep-03 13:24  m  20 25 33.222168 +62 06 15.36437
 2018-Sep-03 13:25  m  20 25 33.220466 +62 06 13.40836
 2018-Sep-03 13:26  m  20 25 33.218780 +62 06 11.45231
 2018-Sep-03 13:27  m  20 25 33.217109 +62 06 09.49624
 2018-Sep-03 13:28  m  20 25 33.215453 +62 06 07.54015
 2018-Sep-03 13:29  m  20 25 33.213814 +62 06 05.58403
 2018-Sep-03 13:30  m  20 25 33.212189 +62 06 03.62788
 2018-Sep-03 13:31  m  20 25 33.210581 +62 06 01.67171
 2018-Sep-03 13:32  m  20 25 33.208988 +62 05 59.71552
 2018-Sep-03 13:33  m  20 25 33.207411 +62 05 57.75930
 2018-Sep-03 13:34  m  20 25 33.205849 +62 05 55.80306
 2018-Sep-03 13:35  m  20 25 33.204303 +62 05 53.84680
 2018-Sep-03 13:36  m  20 25 33.202772 +62 05 51.89051
 2018-Sep-03 13:37  m  20 25 33.201257 +62 05 49.93420
 2018-Sep-03 13:38  m  20 25 33.199758 +62 05 47.97787
 2018-Sep-03 13:39  m  20 25 33.198274 +62 05 46.02152
 2018-Sep-03 13:40  m  20 25 33.196806 +62 05 44.06515
 2018-Sep-03 13:41  m  20 25 33.195354 +62 05 42.10876
 2018-Sep-03 13:42  m  20 25 33.193917 +62 05 40.15235
 2018-Sep-03 13:43  m  20 25 33.192496 +62 05 38.19591
 2018-Sep-03 13:44  m  20 25 33.191091 +62 05 36.23946
 2018-Sep-03 13:45  m  20 25 33.189701 +62 05 34.28299
 2018-Sep-03 13:46  m  20 25 33.188327 +62 05 32.32650
 2018-Sep-03 13:47  m  20 25 33.186969 +62 05 30.37000
 2018-Sep-03 13:48  m  20 25 33.185626 +62 05 28.41347
 2018-Sep-03 13:49  m  20 25 33.184299 +62 05 26.45693
 2018-Sep-03 13:50  m  20 25 33.182987 +62 05 24.50037
 2018-Sep-03 13:51  m  20 25 33.181692 +62 05 22.54380
 2018-Sep-03 13:52  m  20 25 33.180412 +62 05 20.58720
 2018-Sep-03 13:53  m  20 25 33.179147 +62 05 18.63060
 2018-Sep-03 13:54  m  20 25 33.177899 +62 05 16.67397
 2018-Sep-03 13:55  m  20 25 33.176666 +62 05 14.71734
 2018-Sep-03 13:56  m  20 25 33.175448 +62 05 12.76068
 2018-Sep-03 13:57  m  20 25 33.174247 +62 05 10.80402
 2018-Sep-03 13:58  m  20 25 33.173061 +62 05 08.84733
 2018-Sep-03 13:59  m  20 25 33.171890 +62 05 06.89064
 2018-Sep-03 14:00  m  20 25 33.170736 +62 05 04.93393
 2018-Sep-03 14:01  m  20 25 33.169597 +62 05 02.97721
 2018-Sep-03 14:02  m  20 25 33.168473 +62 05 01.02048
 2018-Sep-03 14:03  m  20 25 33.167366 +62 04 59.06373
 2018-Sep-03 14:04  m  20 25 33.166274 +62 04 57.10698
 2018-Sep-03 14:05  m  20 25 33.165197 +62 04 55.15021
 2018-Sep-03 14:06  m  20 25 33.164137 +62 04 53.19343
 2018-Sep-03 14:07  m  20 25 33.163092 +62 04 51.23664
 2018-Sep-03 14:08  m  20 25 33.162062 +62 04 49.27985
 2018-Sep-03 14:09  m  20 25 33.161049 +62 04 47.32304
 2018-Sep-03 14:10  m  20 25 33.160051 +62 04 45.36622
 2018-Sep-03 14:11  m  20 25 33.159068 +62 04 43.40939
 2018-Sep-03 14:12  m  20 25 33.158102 +62 04 41.45256
 2018-Sep-03 14:13  m  20 25 33.157151 +62 04 39.49572
 2018-Sep-03 14:14  m  20 25 33.156215 +62 04 37.53887
 2018-Sep-03 14:15  m  20 25 33.155295 +62 04 35.58201
 2018-Sep-03 14:16  m  20 25 33.154391 +62 04 33.62514
 2018-Sep-03 14:17  m  20 25 33.153502 +62 04 31.66827
 2018-Sep-03 14:18  m  20 25 33.152629 +62 04 29.71140
 2018-Sep-03 14:19  m  20 25 33.151772 +62 04 27.75451
 2018-Sep-03 14:20  m  20 25 33.150930 +62 04 25.79763
 2018-Sep-03 14:21  m  20 25 33.150104 +62 04 23.84073
 2018-Sep-03 14:22  m  20 25 33.149293 +62 04 21.88383
 2018-Sep-03 14:23  m  20 25 33.148498 +62 04 19.92693
 2018-Sep-03 14:24  m  20 25 33.147719 +62 04 17.97003
 2018-Sep-03 14:25  m  20 25 33.146955 +62 04 16.01312
 2018-Sep-03 14:26  m  20 25 33.146206 +62 04 14.05621
 2018-Sep-03 14:27  m  20 25 33.145474 +62 04 12.09929
 2018-Sep-03 14:28  m  20 25 33.144756 +62 04 10.14237
 2018-Sep-03 14:29  m  20 25 33.144054 +62 04 08.18545
 2018-Sep-03 14:30  m  20 25 33.143368 +62 04 06.22853
 2018-Sep-03 14:31  m  20 25 33.142697 +62 04 04.27161
 2018-Sep-03 14:32  m  20 25 33.142042 +62 04 02.31469
 2018-Sep-03 14:33  m  20 25 33.141402 +62 04 00.35777
 2018-Sep-03 14:34  m  20 25 33.140778 +62 03 58.40085
 2018-Sep-03 14:35  m  20 25 33.140169 +62 03 56.44392
 2018-Sep-03 14:36  m  20 25 33.139576 +62 03 54.48700
 2018-Sep-03 14:37  m  20 25 33.138998 +62 03 52.53008
 2018-Sep-03 14:38  m  20 25 33.138435 +62 03 50.57316
 2018-Sep-03 14:39  m  20 25 33.137888 +62 03 48.61625
 2018-Sep-03 14:40  m  20 25 33.137357 +62 03 46.65933
 2018-Sep-03 14:41  m  20 25 33.136840 +62 03 44.70242
 2018-Sep-03 14:42  m  20 25 33.136340 +62 03 42.74551
 2018-Sep-03 14:43  m  20 25 33.135854 +62 03 40.78861
 2018-Sep-03 14:44  m  20 25 33.135384 +62 03 38.83171
 2018-Sep-03 14:45  m  20 25 33.134929 +62 03 36.87481
 2018-Sep-03 14:46  m  20 25 33.134490 +62 03 34.91792
 2018-Sep-03 14:47  m  20 25 33.134065 +62 03 32.96103
 2018-Sep-03 14:48  m  20 25 33.133657 +62 03 31.00415
 2018-Sep-03 14:49  m  20 25 33.133263 +62 03 29.04728
 2018-Sep-03 14:50  m  20 25 33.132885 +62 03 27.09041
 2018-Sep-03 14:51  m  20 25 33.132522 +62 03 25.13354
 2018-Sep-03 14:52  m  20 25 33.132174 +62 03 23.17669
 2018-Sep-03 14:53 Am  20 25 33.131841 +62 03 21.21984
 2018-Sep-03 14:54 Am  20 25 33.131524 +62 03 19.26300
 2018-Sep-03 14:55 Am  20 25 33.131222 +62 03 17.30616
 2018-Sep-03 14:56 Am  20 25 33.130935 +62 03 15.34934
 2018-Sep-03 14:57 Am  20 25 33.130663 +62 03 13.39252
 2018-Sep-03 14:58 Am  20 25 33.130407 +62 03 11.43572
 2018-Sep-03 14:59 Am  20 25 33.130165 +62 03 09.47892
 2018-Sep-03 15:00 Am  20 25 33.129939 +62 03 07.52213
 2018-Sep-03 15:01 Am  20 25 33.129728 +62 03 05.56536
 2018-Sep-03 15:02 Am  20 25 33.129531 +62 03 03.60859
 2018-Sep-03 15:03 Am  20 25 33.129350 +62 03 01.65184
 2018-Sep-03 15:04 Am  20 25 33.129184 +62 02 59.69509
 2018-Sep-03 15:05 Am  20 25 33.129033 +62 02 57.73836
 2018-Sep-03 15:06 Am  20 25 33.128897 +62 02 55.78164
 2018-Sep-03 15:07 Am  20 25 33.128776 +62 02 53.82493
 2018-Sep-03 15:08 Am  20 25 33.128670 +62 02 51.86824
 2018-Sep-03 15:09 Am  20 25 33.128579 +62 02 49.91156
